{
  "type": "FeatureCollection",
  "features": [
    {
      "type": "Feature",
      "properties": {
        "norad_id": 43207,
        "name": "BEIDOU-3 M4 (C22)",
        "group": "beidou",
        "lat": -45.60705891376749,
        "lon": -68.14105213487545,
        "alt_km": 21540.98513243599,
        "timestamp": "2025-12-12T03:50:52.682388+00:00",
        "meta_object_name": "BEIDOU-3 M4 (C22)",
        "meta_object_id": "2018-018A",
        "meta_epoch": "2025-12-10T17:31:13.270944",
        "meta_mean_motion": 1.86230984,
        "meta_eccentricity": 0.0004136,
        "meta_inclination": 56.4844,
        "meta_ra_of_asc_node": 69.3703,
        "meta_arg_of_pericenter": 10.5342,
        "meta_mean_anomaly": 349.4961,
        "meta_ephemeris_type": 0,
        "meta_classification_type": "U",
        "meta_norad_cat_id": 43207,
        "meta_element_set_no": 999,
        "meta_rev_at_epoch": 5323,
        "meta_bstar": 0,
        "meta_mean_motion_dot": -5.7e-07,
        "meta_mean_motion_ddot": 0,
        "tle_line1": "1 43207U 18018A   25344.73001471 -.00000057  00000+0  00000+0 0  9996",
        "tle_line2": "2 43207  56.4844  69.3703 0004136  10.5342 349.4961  1.86230984 53236"
      },
      "geometry": {
        "type": "Point",
        "coordinates": [
          -68.14105213487545,
          -45.60705891376749
        ]
      }
    },
    {
      "type": "Feature",
      "properties": {
        "norad_id": 43208,
        "name": "BEIDOU-3 M3 (C21)",
        "group": "beidou",
        "lat": -11.88154118230677,
        "lon": -102.66212545067695,
        "alt_km": 21539.768679937963,
        "timestamp": "2025-12-12T03:50:52.682399+00:00",
        "meta_object_name": "BEIDOU-3 M3 (C21)",
        "meta_object_id": "2018-018B",
        "meta_epoch": "2025-12-10T19:07:00.604992",
        "meta_mean_motion": 1.86231201,
        "meta_eccentricity": 0.00065395,
        "meta_inclination": 56.4841,
        "meta_ra_of_asc_node": 69.3721,
        "meta_arg_of_pericenter": 317.1665,
        "meta_mean_anomaly": 42.8042,
        "meta_ephemeris_type": 0,
        "meta_classification_type": "U",
        "meta_norad_cat_id": 43208,
        "meta_element_set_no": 999,
        "meta_rev_at_epoch": 5323,
        "meta_bstar": 0,
        "meta_mean_motion_dot": -5.7e-07,
        "meta_mean_motion_ddot": 0,
        "tle_line1": "1 43208U 18018B   25344.79653478 -.00000057  00000+0  00000+0 0  9993",
        "tle_line2": "2 43208  56.4841  69.3721 0006539 317.1665  42.8042  1.86231201 53234"
      },
      "geometry": {
        "type": "Point",
        "coordinates": [
          -102.66212545067695,
          -11.88154118230677
        ]
      }
    },
    {
      "type": "Feature",
      "properties": {
        "norad_id": 43245,
        "name": "BEIDOU-3 M9 (C29)",
        "group": "beidou",
        "lat": 38.12419626007192,
        "lon": -19.299895482893497,
        "alt_km": 21527.017393851165,
        "timestamp": "2025-12-12T03:50:52.682410+00:00",
        "meta_object_name": "BEIDOU-3 M9 (C29)",
        "meta_object_id": "2018-029A",
        "meta_epoch": "2025-12-09T09:38:36.109248",
        "meta_mean_motion": 1.86227964,
        "meta_eccentricity": 0.00016746,
        "meta_inclination": 54.3687,
        "meta_ra_of_asc_node": 306.5834,
        "meta_arg_of_pericenter": 274.0787,
        "meta_mean_anomaly": 85.8921,
        "meta_ephemeris_type": 0,
        "meta_classification_type": "U",
        "meta_norad_cat_id": 43245,
        "meta_element_set_no": 999,
        "meta_rev_at_epoch": 5236,
        "meta_bstar": 0,
        "meta_mean_motion_dot": -7.6e-07,
        "meta_mean_motion_ddot": 0,
        "tle_line1": "1 43245U 18029A   25343.40180682 -.00000076  00000+0  00000+0 0  9996",
        "tle_line2": "2 43245  54.3687 306.5834 0001674 274.0787  85.8921  1.86227964 52369"
      },
      "geometry": {
        "type": "Point",
        "coordinates": [
          -19.299895482893497,
          38.12419626007192
        ]
      }
    },
    {
      "type": "Feature",
      "properties": {
        "norad_id": 43246,
        "name": "BEIDOU-3 M10 (C30)",
        "group": "beidou",
        "lat": 54.262652065935455,
        "lon": 41.46883199237603,
        "alt_km": 21522.606277920717,
        "timestamp": "2025-12-12T03:50:52.682421+00:00",
        "meta_object_name": "BEIDOU-3 M10 (C30)",
        "meta_object_id": "2018-029B",
        "meta_epoch": "2025-12-10T09:51:50.083776",
        "meta_mean_motion": 1.86228788,
        "meta_eccentricity": 0.00039909,
        "meta_inclination": 54.3654,
        "meta_ra_of_asc_node": 306.5763,
        "meta_arg_of_pericenter": 359.52,
        "meta_mean_anomaly": 0.4707,
        "meta_ephemeris_type": 0,
        "meta_classification_type": "U",
        "meta_norad_cat_id": 43246,
        "meta_element_set_no": 999,
        "meta_rev_at_epoch": 5236,
        "meta_bstar": 0,
        "meta_mean_motion_dot": -8.1e-07,
        "meta_mean_motion_ddot": 0,
        "tle_line1": "1 43246U 18029B   25344.41099634 -.00000081  00000+0  00000+0 0  9991",
        "tle_line2": "2 43246  54.3654 306.5763 0003990 359.5200   0.4707  1.86228788 52367"
      },
      "geometry": {
        "type": "Point",
        "coordinates": [
          41.46883199237603,
          54.262652065935455
        ]
      }
    },
    {
      "type": "Feature",
      "properties": {
        "norad_id": 43539,
        "name": "BEIDOU-2 IGSO-7 (C16)",
        "group": "beidou",
        "lat": 54.759603839458805,
        "lon": -114.75902071866942,
        "alt_km": 36123.89234788825,
        "timestamp": "2025-12-12T03:50:52.682432+00:00",
        "meta_object_name": "BEIDOU-2 IGSO-7 (C16)",
        "meta_object_id": "2018-057A",
        "meta_epoch": "2025-12-10T21:52:21.696672",
        "meta_mean_motion": 1.00257387,
        "meta_eccentricity": 0.0092503,
        "meta_inclination": 55.1742,
        "meta_ra_of_asc_node": 164.6867,
        "meta_arg_of_pericenter": 235.2118,
        "meta_mean_anomaly": 119.0859,
        "meta_ephemeris_type": 0,
        "meta_classification_type": "U",
        "meta_norad_cat_id": 43539,
        "meta_element_set_no": 999,
        "meta_rev_at_epoch": 2723,
        "meta_bstar": 0,
        "meta_mean_motion_dot": -5.8e-07,
        "meta_mean_motion_ddot": 0,
        "tle_line1": "1 43539U 18057A   25344.91136223 -.00000058  00000+0  00000+0 0  9992",
        "tle_line2": "2 43539  55.1742 164.6867 0092503 235.2118 119.0859  1.00257387 27239"
      },
      "geometry": {
        "type": "Point",
        "coordinates": [
          -114.75902071866942,
          54.759603839458805
        ]
      }
    },
    {
      "type": "Feature",
      "properties": {
        "norad_id": 43581,
        "name": "BEIDOU-3 M5 (C23)",
        "group": "beidou",
        "lat": -43.25684494296977,
        "lon": 145.67539775080365,
        "alt_km": 21529.691824984373,
        "timestamp": "2025-12-12T03:50:52.682443+00:00",
        "meta_object_name": "BEIDOU-3 M5 (C23)",
        "meta_object_id": "2018-062A",
        "meta_epoch": "2025-12-11T04:08:35.452320",
        "meta_mean_motion": 1.86228753,
        "meta_eccentricity": 0.0002116,
        "meta_inclination": 54.0892,
        "meta_ra_of_asc_node": 188.6963,
        "meta_arg_of_pericenter": 354.64,
        "meta_mean_anomaly": 5.4158,
        "meta_ephemeris_type": 0,
        "meta_classification_type": "U",
        "meta_norad_cat_id": 43581,
        "meta_element_set_no": 999,
        "meta_rev_at_epoch": 5013,
        "meta_bstar": 0,
        "meta_mean_motion_dot": 6.4e-07,
        "meta_mean_motion_ddot": 0,
        "tle_line1": "1 43581U 18062A   25345.17263255  .00000064  00000+0  00000+0 0  9996",
        "tle_line2": "2 43581  54.0892 188.6963 0002116 354.6400   5.4158  1.86228753 50138"
      },
      "geometry": {
        "type": "Point",
        "coordinates": [
          145.67539775080365,
          -43.25684494296977
        ]
      }
    },
    {
      "type": "Feature",
      "properties": {
        "norad_id": 43582,
        "name": "BEIDOU-3 M6 (C24)",
        "group": "beidou",
        "lat": 26.95843581586507,
        "lon": -149.71229266374834,
        "alt_km": 21503.629623121862,
        "timestamp": "2025-12-12T03:50:52.682454+00:00",
        "meta_object_name": "BEIDOU-3 M6 (C24)",
        "meta_object_id": "2018-062B",
        "meta_epoch": "2025-12-11T00:51:25.809696",
        "meta_mean_motion": 1.86229873,
        "meta_eccentricity": 0.00078003,
        "meta_inclination": 54.0887,
        "meta_ra_of_asc_node": 188.6901,
        "meta_arg_of_pericenter": 46.9757,
        "meta_mean_anomaly": 313.1476,
        "meta_ephemeris_type": 0,
        "meta_classification_type": "U",
        "meta_norad_cat_id": 43582,
        "meta_element_set_no": 999,
        "meta_rev_at_epoch": 5013,
        "meta_bstar": 0,
        "meta_mean_motion_dot": 6.2e-07,
        "meta_mean_motion_ddot": 0,
        "tle_line1": "1 43582U 18062B   25345.03571539  .00000062  00000+0  00000+0 0  9997",
        "tle_line2": "2 43582  54.0887 188.6901 0007800  46.9757 313.1476  1.86229873 50132"
      },
      "geometry": {
        "type": "Point",
        "coordinates": [
          -149.71229266374834,
          26.95843581586507
        ]
      }
    }
  ]
}